{"type": "FeatureCollection", "features": [ {"type": "Feature", "properties": {"norad_id": 34303, "name": "COSMOS 2251 DEB", "group": "cosmos-2251-debris", "lat": -32.99384902668025, "lon": 117.05046305596106, "alt_km": 799.3969830671394, "timestamp": "2025-12-13T15:35:12.498065+00:00", "meta": {"OBJECT_NAME": "COSMOS 2251 DEB", "OBJECT_ID": "1993-036MZ", "EPOCH": "2025-12-12T22:26:11.249952", "MEAN_MOTION": 14.54456611, "ECCENTRICITY": 0.01350212, "INCLINATION": 74.0053, "RA_OF_ASC_NODE": 287.6717, "ARG_OF_PERICENTER": 65.986, "MEAN_ANOMALY": 7.4822, "EPHEMERIS_TYPE": 0, "CLASSIFICATION_TYPE": "U", "NORAD_CAT_ID": 34303, "ELEMENT_SET_NO": 999, "REV_AT_EPOCH": 87965, "BSTAR": 0.0021320947, "MEAN_MOTION_DOT": 0.00010237, "MEAN_MOTION_DDOT": 0}, "tle": {"line1": "1 34303U 93036MZ  25346.93485243  .00010237  00000+0  21321-2 0  9995", "line2": "2 34303  74.0053 287.6717 0135021  65.9860   7.4822 14.54456611879653"}}, "geometry": {"type": "Point", "coordinates": [117.05046305596106, -32.99384902668025]}}, {"type": "Feature", "properties": {"norad_id": 34304, "name": "COSMOS 2251 DEB", "group": "cosmos-2251-debris", "lat": -73.96594352188356, "lon": 34.94944941964246, "alt_km": 682.5838133124107, "timestamp": "2025-12-13T15:35:12.498075+00:00", "meta": {"OBJECT_NAME": "COSMOS 2251 DEB", "OBJECT_ID": "1993-036NA", "EPOCH": "2025-12-11T15:38:34.924704", "MEAN_MOTION": 14.37842922, "ECCENTRICITY": 0.01289323, "INCLINATION": 74.0134, "RA_OF_ASC_NODE": 124.6019, "ARG_OF_PERICENTER": 262.6101, "MEAN_ANOMALY": 111.8909, "EPHEMERIS_TYPE": 0, "CLASSIFICATION_TYPE": "U", "NORAD_CAT_ID": 34304, "ELEMENT_SET_NO": 999, "REV_AT_EPOCH": 87281, "BSTAR": 0.0023363663, "MEAN_MOTION_DOT": 7.735e-05, "MEAN_MOTION_DDOT": 0}, "tle": {"line1": "1 34304U 93036NA  25345.65179311  .00007735  00000+0  23364-2 0  9998", "line2": "2 34304  74.0134 124.6019 0128932 262.6101 111.8909 14.37842922872818"}}, "geometry": {"type": "Point", "coordinates": [34.94944941964246, -73.96594352188356]}}, {"type": "Feature", "properties": {"norad_id": 34307, "name": "COSMOS 2251 DEB", "group": "cosmos-2251-debris", "lat": -25.48106038216898, "lon": 139.48736083564887, "alt_km": 925.0421547312335, "timestamp": "2025-12-13T15:35:12.498085+00:00", "meta": {"OBJECT_NAME": "COSMOS 2251 DEB", "OBJECT_ID": "1993-036ND", "EPOCH": "2025-12-12T16:26:59.995104", "MEAN_MOTION": 13.54320453, "ECCENTRICITY": 0.03920653, "INCLINATION": 74.0534, "RA_OF_ASC_NODE": 313.2025, "ARG_OF_PERICENTER": 144.1554, "MEAN_ANOMALY": 39.8873, "EPHEMERIS_TYPE": 0, "CLASSIFICATION_TYPE": "U", "NORAD_CAT_ID": 34307, "ELEMENT_SET_NO": 999, "REV_AT_EPOCH": 82861, "BSTAR": 0.00086877512, "MEAN_MOTION_DOT": 9.48e-06, "MEAN_MOTION_DDOT": 0}, "tle": {"line1": "1 34307U 93036ND  25346.68541661  .00000948  00000+0  86878-3 0  9995", "line2": "2 34307  74.0534 313.2025 0392065 144.1554  39.8873 13.54320453828610"}}, "geometry": {"type": "Point", "coordinates": [139.48736083564887, -25.48106038216898]}}, {"type": "Feature", "properties": {"norad_id": 34313, "name": "COSMOS 2251 DEB", "group": "cosmos-2251-debris", "lat": 10.016918855665487, "lon": 120.67173494789441, "alt_km": 509.2461705711685, "timestamp": "2025-12-13T15:35:12.498095+00:00", "meta": {"OBJECT_NAME": "COSMOS 2251 DEB", "OBJECT_ID": "1993-036NK", "EPOCH": "2025-12-12T23:02:24.886464", "MEAN_MOTION": 15.19147536, "ECCENTRICITY": 0.00114603, "INCLINATION": 73.9727, "RA_OF_ASC_NODE": 305.0305, "ARG_OF_PERICENTER": 80.9086, "MEAN_ANOMALY": 279.3407, "EPHEMERIS_TYPE": 0, "CLASSIFICATION_TYPE": "U", "NORAD_CAT_ID": 34313, "ELEMENT_SET_NO": 999, "REV_AT_EPOCH": 89068, "BSTAR": 0.0056596368, "MEAN_MOTION_DOT": 0.00121138, "MEAN_MOTION_DDOT": 0}, "tle": {"line1": "1 34313U 93036NK  25346.96001026  .00121138  00000+0  56596-2 0  9997", "line2": "2 34313  73.9727 305.0305 0011460  80.9086 279.3407 15.19147536890685"}}, "geometry": {"type": "Point", "coordinates": [120.67173494789441, 10.016918855665487]}}, {"type": "Feature", "properties": {"norad_id": 34314, "name": "COSMOS 2251 DEB", "group": "cosmos-2251-debris", "lat": -36.582144130560955, "lon": 139.0505669603378, "alt_km": 911.9444760919141, "timestamp": "2025-12-13T15:35:12.498105+00:00", "meta": {"OBJECT_NAME": "COSMOS 2251 DEB", "OBJECT_ID": "1993-036NL", "EPOCH": "2025-12-12T23:37:30.547776", "MEAN_MOTION": 14.17425347, "ECCENTRICITY": 0.0102801, "INCLINATION": 74.0065, "RA_OF_ASC_NODE": 307.9468, "ARG_OF_PERICENTER": 53.5302, "MEAN_ANOMALY": 12.0728, "EPHEMERIS_TYPE": 0, "CLASSIFICATION_TYPE": "U", "NORAD_CAT_ID": 34314, "ELEMENT_SET_NO": 999, "REV_AT_EPOCH": 86661, "BSTAR": 0.0008395155, "MEAN_MOTION_DOT": 1.767e-05, "MEAN_MOTION_DDOT": 0}, "tle": {"line1": "1 34314U 93036NL  25346.98438134  .00001767  00000+0  83952-3 0  9996", "line2": "2 34314  74.0065 307.9468 0102801  53.5302  12.0728 14.17425347866611"}}, "geometry": {"type": "Point", "coordinates": [139.0505669603378, -36.582144130560955]}}, {"type": "Feature", "properties": {"norad_id": 34316, "name": "COSMOS 2251 DEB", "group": "cosmos-2251-debris", "lat": -62.45865617872356, "lon": -58.155462450278, "alt_km": 602.3584688449164, "timestamp": "2025-12-13T15:35:12.498115+00:00", "meta": {"OBJECT_NAME": "COSMOS 2251 DEB", "OBJECT_ID": "1993-036NN", "EPOCH": "2025-12-12T23:47:36.998880", "MEAN_MOTION": 14.91843208, "ECCENTRICITY": 0.0008307, "INCLINATION": 74.0648, "RA_OF_ASC_NODE": 336.3845, "ARG_OF_PERICENTER": 60.6383, "MEAN_ANOMALY": 299.5628, "EPHEMERIS_TYPE": 0, "CLASSIFICATION_TYPE": "U", "NORAD_CAT_ID": 34316, "ELEMENT_SET_NO": 999, "REV_AT_EPOCH": 89213, "BSTAR": 0.0022319894, "MEAN_MOTION_DOT": 0.00022593, "MEAN_MOTION_DDOT": 0}, "tle": {"line1": "1 34316U 93036NN  25346.99140045  .00022593  00000+0  22320-2 0  9991", "line2": "2 34316  74.0648 336.3845 0008307  60.6383 299.5628 14.91843208892138"}}, "geometry": {"type": "Point", "coordinates": [-58.155462450278, -62.45865617872356]}}, {"type": "Feature", "properties": {"norad_id": 34317, "name": "COSMOS 2251 DEB", "group": "cosmos-2251-debris", "lat": -17.85989254816291, "lon": 28.930139582278787, "alt_km": 832.6242614477151, "timestamp": "2025-12-13T15:35:12.498124+00:00", "meta": {"OBJECT_NAME": "COSMOS 2251 DEB", "OBJECT_ID": "1993-036NP", "EPOCH": "2025-12-12T21:11:35.038752", "MEAN_MOTION": 13.65121792, "ECCENTRICITY": 0.03365272, "INCLINATION": 73.9247, "RA_OF_ASC_NODE": 35.5223, "ARG_OF_PERICENTER": 24.7548, "MEAN_ANOMALY": 154.2185, "EPHEMERIS_TYPE": 0, "CLASSIFICATION_TYPE": "U", "NORAD_CAT_ID": 34317, "ELEMENT_SET_NO": 999, "REV_AT_EPOCH": 83621, "BSTAR": 0.0005210361, "MEAN_MOTION_DOT": 6e-06, "MEAN_MOTION_DDOT": 0}, "tle": {"line1": "1 34317U 93036NP  25346.88304443  .00000600  00000+0  52104-3 0  9993", "line2": "2 34317  73.9247  35.5223 0336527  24.7548 154.2185 13.65121792836211"}}, "geometry": {"type": "Point", "coordinates": [28.930139582278787, -17.85989254816291]}}, {"type": "Feature", "properties": {"norad_id": 34321, "name": "COSMOS 2251 DEB", "group": "cosmos-2251-debris", "lat": -51.66420435622823, "lon": 133.4184543985567, "alt_km": 721.5601463020403, "timestamp": "2025-12-13T15:35:12.498134+00:00", "meta": {"OBJECT_NAME": "COSMOS 2251 DEB", "OBJECT_ID": "1993-036NT", "EPOCH": "2025-12-12T22:20:03.573888", "MEAN_MOTION": 14.50057424, "ECCENTRICITY": 0.00158319, "INCLINATION": 74.028, "RA_OF_ASC_NODE": 156.003, "ARG_OF_PERICENTER": 285.5706, "MEAN_ANOMALY": 228.7156, "EPHEMERIS_TYPE": 0, "CLASSIFICATION_TYPE": "U", "NORAD_CAT_ID": 34321, "ELEMENT_SET_NO": 999, "REV_AT_EPOCH": 88489, "BSTAR": 0.00091991308, "MEAN_MOTION_DOT": 3.547e-05, "MEAN_MOTION_DDOT": 0}, "tle": {"line1": "1 34321U 93036NT  25346.93059692  .00003547  00000+0  91991-3 0  9997", "line2": "2 34321  74.0280 156.0030 0015831 285.5706 228.7156 14.50057424884892"}}, "geometry": {"type": "Point", "coordinates": [133.4184543985567, -51.66420435622823]}}, {"type": "Feature", "properties": {"norad_id": 34323, "name": "COSMOS 2251 DEB", "group": "cosmos-2251-debris", "lat": 38.064986493394805, "lon": 134.35613049298166, "alt_km": 667.4515276152588, "timestamp": "2025-12-13T15:35:12.498144+00:00", "meta": {"OBJECT_NAME": "COSMOS 2251 DEB", "OBJECT_ID": "1993-036NV", "EPOCH": "2025-12-12T12:04:33.774816", "MEAN_MOTION": 14.74422537, "ECCENTRICITY": 0.00590921, "INCLINATION": 73.9524, "RA_OF_ASC_NODE": 123.5779, "ARG_OF_PERICENTER": 167.7874, "MEAN_ANOMALY": 270.7864, "EPHEMERIS_TYPE": 0, "CLASSIFICATION_TYPE": "U", "NORAD_CAT_ID": 34323, "ELEMENT_SET_NO": 999, "REV_AT_EPOCH": 88436, "BSTAR": 0.003759112, "MEAN_MOTION_DOT": 0.00025728, "MEAN_MOTION_DDOT": 0}, "tle": {"line1": "1 34323U 93036NV  25346.50316869  .00025728  00000+0  37591-2 0  9994", "line2": "2 34323  73.9524 123.5779 0059092 167.7874 270.7864 14.74422537884368"}}, "geometry": {"type": "Point", "coordinates": [134.35613049298166, 38.064986493394805]}}, {"type": "Feature", "properties": {"norad_id": 34325, "name": "COSMOS 2251 DEB", "group": "cosmos-2251-debris", "lat": 25.329756165063706, "lon": -160.92320963949018, "alt_km": 1016.5367661087084, "timestamp": "2025-12-13T15:35:12.498154+00:00", "meta": {"OBJECT_NAME": "COSMOS 2251 DEB", "OBJECT_ID": "1993-036NX", "EPOCH": "2025-12-13T00:48:28.607616", "MEAN_MOTION": 14.04475528, "ECCENTRICITY": 0.01921961, "INCLINATION": 73.8713, "RA_OF_ASC_NODE": 192.2892, "ARG_OF_PERICENTER": 209.5408, "MEAN_ANOMALY": 304.6464, "EPHEMERIS_TYPE": 0, "CLASSIFICATION_TYPE": "U", "NORAD_CAT_ID": 34325, "ELEMENT_SET_NO": 999, "REV_AT_EPOCH": 85519, "BSTAR": 0.002545086, "MEAN_MOTION_DOT": 4.762e-05, "MEAN_MOTION_DDOT": 0}, "tle": {"line1": "1 34325U 93036NX  25347.03366444  .00004762  00000+0  25451-2 0  9996", "line2": "2 34325  73.8713 192.2892 0192196 209.5408 304.6464 14.04475528855192"}}, "geometry": {"type": "Point", "coordinates": [-160.92320963949018, 25.329756165063706]}}]}